STARLINK-30566          
1 58054U 23158D   24276.53659795 -.00017337  00000+0 -12731-2 0  9999
2 58054  43.0064 353.1654 0002195 286.5119  73.5482 15.02486052 54839
STARLINK-30544          
1 58055U 23158E   24276.51996360  .00001337  00000+0  11405-3 0  9999
2 58055  43.0068 353.0370 0001379 277.8777  82.1909 15.02524390 54786
STARLINK-30553          
1 58056U 23158F   24276.52993933 -.00008107  00000+0 -58601-3 0  9997
2 58056  43.0053 353.1116 0001299 292.7080  67.3625 15.02520056 54824
STARLINK-30541          
1 58057U 23158G   24277.19806024  .00001140  00000+0  99442-4 0  9993
2 58057  43.0014 349.5264 0001572 279.3723  80.6941 15.02536066 54922
STARLINK-30573          
1 58058U 23158H   24276.19423649  .00007927  00000+0  60137-3 0  9998
2 58058  43.0037 354.8967 0001521 267.0034  93.0635 15.02525229 54781
STARLINK-30582          
1 58059U 23158J   24276.64959674 -.00001615  00000+0 -10452-3 0  9996
2 58059  43.0047 352.2917 0000820 254.3695 105.7056 15.02524140 54850
STARLINK-30558          
1 58060U 23158K   24277.22135856  .00000747  00000+0  70343-4 0  9990
2 58060  43.0073 349.6837 0002140 262.3327  97.7272 15.02543601 54932
STARLINK-30579          
1 58061U 23158L   24277.17870480  .00004912  00000+0  37853-3 0  9990
2 58061  43.0043 324.0727 0001482 261.3541  98.7133 15.02526018 55212
STARLINK-30588          
1 58062U 23158M   24276.24405498  .00003598  00000+0  28123-3 0  9990
2 58062  43.0013 354.4041 0001221 237.9078 122.1646 15.02540407 54792
STARLINK-30585          
1 58063U 23158N   24276.56645915 -.00002047  00000+0 -13654-3 0  9999
2 58063  43.0035 352.5298 0001672 260.2285  99.8369 15.02531398 54835
STARLINK-30587          
1 58064U 23158P   24276.64625809 -.00001574  00000+0 -10152-3 0  9993
2 58064  43.0005 352.2686 0000817 243.0740 117.0019 15.02517738 54855
STARLINK-30576          
1 58065U 23158Q   24276.53993719  .00002317  00000+0  18655-3 0  9990
2 58065  43.0072 353.1914 0001692 278.2427  81.8223 15.02539744 54720
STARLINK-30571          
1 58066U 23158R   24277.22457943  .00003229  00000+0  25400-3 0  9991
2 58066  42.9962 348.8594 0001575 144.7596 215.3350 15.02535638 54932
STARLINK-30567          
1 58067U 23158S   24276.48788094  .00001247  00000+0  10737-3 0  9998
2 58067  43.0025 353.6405 0000969 262.8761  97.1971 15.02543567 54825
STARLINK-30569          
1 58068U 23158T   24277.17143399  .00008395  00000+0  63570-3 0  9993
2 58068  43.0114 349.3311 0003484 285.3399  74.7059 15.02539479 54932
STARLINK-30480          
1 58069U 23158U   24277.14975134  .00005866  00000+0  23398-3 0  9995
2 58069  43.0012 313.4204 0001105 236.1694 123.9052 15.25899239 55358
STARLINK-30532          
1 58070U 23158V   24276.63627736  .00004142  00000+0  32144-3 0  9997
2 58070  43.0029 352.1891 0000822 256.2466 103.8285 15.02539367 54852
STARLINK-30513          
1 58071U 23158W   24277.16395377  .00005983  00000+0  15031-3 0  9990
2 58071  43.0042 209.3789 0002144 262.2830  97.7783 15.40713719 56547
STARLINK-30506          
1 58072U 23158X   24276.23074021 -.00004346  00000+0 -30672-3 0  9990
2 58072  43.0059 354.3030 0000994 246.7133 113.3605 15.02553895 54798
YUNHAI-1 04             
1 58073U 23159A   24277.17628765  .00001403  00000+0  52820-3 0  9994
2 58073  98.5601 301.6002 0001929 126.4851 233.6511 14.33042419 50720
STARLINK-30604          
1 58075U 23160A   24276.77007834  .00002059  00000+0  16746-3 0  9996
2 58075  43.0071  41.9666 0001913 267.4863  92.5760 15.02532164 54258
STARLINK-30500          
1 58076U 23160B   24277.04584073 -.00001432  00000+0 -90907-4 0  9991
2 58076  43.0035  39.7340 0001100 286.1447  73.9275 15.02556386 54264
STARLINK-30613          
1 58077U 23160C   24276.63045884  .00000281  00000+0  35861-4 0  9995
2 58077  43.0029  42.6346 0001158 257.9444 102.1268 15.02539598 54244
STARLINK-30597          
1 58078U 23160D   24276.70692245 -.00001706  00000+0 -11124-3 0  9993
2 58078  43.0051  42.3343 0001673 266.7442  93.3209 15.02545192 54245
STARLINK-30598          
1 58079U 23160E   24276.62713015 -.00000234  00000+0 -22477-5 0  9994
2 58079  43.0037  42.6091 0001021 259.9276 100.1451 15.02543025 54237
STARLINK-30603          
1 58080U 23160F   24276.75676089  .00003981  00000+0  30961-3 0  9994
2 58080  43.0048  41.8635 0000780 286.2391  73.8366 15.02537857 54257
STARLINK-30602          
1 58081U 23160G   24277.05583361  .00003664  00000+0  28603-3 0  9997
2 58081  43.0072  39.7967 0001478 270.9483  89.1190 15.02551782 54322
STARLINK-30610          
1 58082U 23160H   24276.42103791 -.00000085  00000+0  88115-5 0  9994
2 58082  43.0097  43.6459 0002009 269.3908  90.6704 15.02530996 54204
STARLINK-30551          
1 58083U 23160J   24276.68361998  .00000251  00000+0  33666-4 0  9992
2 58083  43.0042  42.1739 0001007 280.9798  79.0931 15.02537981 54241
STARLINK-30586          
1 58084U 23160K   24277.07914886  .00000204  00000+0  30195-4 0  9999
2 58084  43.0053  39.9805 0001492 262.2505  97.8168 15.02543961 54323
STARLINK-30609          
1 58085U 23160L   24277.07581799  .00003125  00000+0  24624-3 0  9997
2 58085  43.0059  39.9568 0002229 276.4853  83.5736 15.02545020 54318
STARLINK-30583          
1 58086U 23160M   24276.40771348  .00002466  00000+0  19753-3 0  9999
2 58086  42.9995  43.5356 0002116 287.6427  72.4184 15.02541063 54203
STARLINK-30557          
1 58087U 23160N   24276.67806847  .00000374  00000+0  42727-4 0  9996
2 58087  43.0034  42.1331 0001144 263.4044  96.6668 15.02538772 54247
STARLINK-30591          
1 58088U 23160P   24277.06583670  .00005143  00000+0  39565-3 0  9991
2 58088  42.9988  39.8746 0000794 241.4980 118.5783 15.02520087 54323
STARLINK-30584          
1 58089U 23160Q   24277.06251193  .00005828  00000+0  44636-3 0  9999
2 58089  43.0038  39.8577 0001184 292.3750  67.6967 15.02519960 54278
STARLINK-30590          
1 58090U 23160R   24277.06916171 -.00031004  00000+0 -22798-2 0  9996
2 58090  43.0056  39.9047 0002275 286.3605  73.6987 15.02704741 54325
STARLINK-30608          
1 58091U 23160S   24277.05917213  .00003837  00000+0  29893-3 0  9999
2 58091  43.0070  39.8290 0001630 261.0795  98.9863 15.02544552 54274
STARLINK-30615          
1 58092U 23160T   24277.05694847  .00003077  00000+0  24267-3 0  9991
2 58092  43.0067  39.8155 0001724 275.6764  84.3881 15.02546533 54272
STARLINK-30578          
1 58093U 23160U   24276.70026173  .00000323  00000+0  38992-4 0  9996
2 58093  43.0042  42.2871 0000881 282.2559  77.8185 15.02545995 54240
STARLINK-30574          
1 58094U 23160V   24276.72012671  .00000475  00000+0  50224-4 0  9997
2 58094  43.0038  41.5857 0001079 262.7434  97.3285 15.02537974 54254
STARLINK-30570          
1 58095U 23160W   24277.04918135  .00004728  00000+0  36467-3 0  9991
2 58095  43.0053  39.7533 0001554 272.1889  87.8776 15.02552523 54277
STARLINK-30581          
1 58096U 23160X   24277.04264194  .00007324  00000+0  55650-3 0  9991
2 58096  43.0059  40.5485 0001779 262.1876  97.8765 15.02550362 54317
STARLINK-30594          
1 58097U 23161A   24276.72450666  .00001419  00000+0  60049-4 0  9996
2 58097  53.1612  74.6331 0001326  83.1422 276.9730 15.30192927 54355
STARLINK-30614          
1 58098U 23161B   24276.78667620  .00003466  00000+0  12917-3 0  9997
2 58098  53.1604  74.3061 0001031  46.3913 313.7173 15.30178557 54368
STARLINK-30607          
1 58099U 23161C   24276.85706250  .00004091  00000+0  13285-3 0  9993
2 58099  53.1646  65.3714 0000656  76.0145 284.0930 15.34224287 54489
STARLINK-30600          
1 58100U 23161D   24276.73084379  .00000700  00000+0  35773-4 0  9994
2 58100  53.1605  74.6603 0001052  75.5482 284.5635 15.30184371 54220
STARLINK-30605          
1 58101U 23161E   24277.17431324 -.00005481  00000+0 -17303-3 0  9991
2 58101  53.1614  72.4610 0001122  86.0061 274.1068 15.30209467 54299
STARLINK-30592          
1 58102U 23161F   24276.84458372  .00001167  00000+0  51538-4 0  9991
2 58102  53.1619  73.9593 0001017  79.8272 280.2843 15.30189958 54378
STARLINK-30589          
1 58103U 23161G   24277.14591231 -.00000674  00000+0 -10657-4 0  9999
2 58103  53.1589  72.7968 0001050  87.8034 272.3087 15.30190526 54285
STARLINK-30617          
1 58104U 23161H   24277.14907328  .00002824  00000+0  10742-3 0  9999
2 58104  53.1589  72.8144 0000085 100.4215 259.6796 15.30196216 54280
STARLINK-30616          
1 58105U 23161J   24276.84915942  .00001862  00000+0  66598-4 0  9999
2 58105  53.1602  70.9641 0001021  73.2548 286.8566 15.34216317 54416
STARLINK-30612          
1 58106U 23161K   24276.78435403  .00001403  00000+0  52939-4 0  9997
2 58106  53.1600  71.2840 0001092  69.4725 290.6395 15.34220491 54402
STARLINK-30421          
1 58107U 23161L   24276.84017487  .00003485  00000+0  11485-3 0  9995
2 58107  53.1606  70.8895 0001004  69.1331 290.9779 15.34223581 54410
STARLINK-30611          
1 58108U 23161M   24277.16555532  .00003341  00000+0  11059-3 0  9998
2 58108  53.1586  69.3428 0001269  85.4980 274.6167 15.34217501 54333
STARLINK-30606          
1 58109U 23161N   24276.72767136  .00001717  00000+0  70100-4 0  9993
2 58109  53.1608  74.6492 0001074  87.9919 272.1205 15.30196142 54353
STARLINK-30596          
1 58110U 23161P   24276.70445875  .00001034  00000+0  47070-4 0  9998
2 58110  53.1581  74.5051 0001554 101.7401 258.3774 15.30188667 54359
STARLINK-30595          
1 58111U 23161Q   24277.13221960  .00001130  00000+0  50249-4 0  9993
2 58111  53.1619  72.9108 0001105  60.4877 299.6234 15.30208295 54288
STARLINK-30593          
1 58112U 23161R   24276.73718278 -.00001161  00000+0 -27106-4 0  9994
2 58112  53.1610  74.7085 0001663  94.9354 265.1837 15.30177319 54352
STARLINK-30353          
1 58113U 23161S   24276.87730402  .00001486  00000+0  62296-4 0  9990
2 58113  53.1622  74.1608 0001077  91.9044 268.2080 15.30184409 54377
